{
  "type": "FeatureCollection",
  "features": [
    {
      "type": "Feature",
      "properties": {
        "norad_id": 33791,
        "name": "COSMOS 2251 DEB",
        "group": "cosmos-2251-debris",
        "lat": -48.004639037198146,
        "lon": -5.7777075866077245,
        "alt_km": 759.0187384848778,
        "timestamp": "2025-12-26T07:29:18.847001+00:00",
        "meta_object_name": "COSMOS 2251 DEB",
        "meta_object_id": "1993-036AG",
        "meta_epoch": "2025-12-25T03:44:01.388832",
        "meta_mean_motion": 14.43190231,
        "meta_eccentricity": 0.00300526,
        "meta_inclination": 74.1748,
        "meta_ra_of_asc_node": 14.7153,
        "meta_arg_of_pericenter": 209.4377,
        "meta_mean_anomaly": 213.8379,
        "meta_ephemeris_type": 0,
        "meta_classification_type": "U",
        "meta_norad_cat_id": 33791,
        "meta_element_set_no": 999,
        "meta_rev_at_epoch": 88231,
        "meta_bstar": 0.00093494649,
        "meta_mean_motion_dot": 3.136e-05,
        "meta_mean_motion_ddot": 0,
        "tle_line1": "1 33791U 93036AG  25359.15557163  .00003136  00000+0  93495-3 0  9996",
        "tle_line2": "2 33791  74.1748  14.7153 0030052 209.4377 213.8379 14.43190231882312"
      },
      "geometry": {
        "type": "Point",
        "coordinates": [
          -5.7777075866077245,
          -48.004639037198146
        ]
      }
    },
    {
      "type": "Feature",
      "properties": {
        "norad_id": 33792,
        "name": "COSMOS 2251 DEB",
        "group": "cosmos-2251-debris",
        "lat": -69.70740518375052,
        "lon": -87.68105720115699,
        "alt_km": 1154.9974916702886,
        "timestamp": "2025-12-26T07:29:18.847012+00:00",
        "meta_object_name": "COSMOS 2251 DEB",
        "meta_object_id": "1993-036AH",
        "meta_epoch": "2025-12-25T23:11:51.083808",
        "meta_mean_motion": 13.45849455,
        "meta_eccentricity": 0.04278791,
        "meta_inclination": 73.9014,
        "meta_ra_of_asc_node": 324.2213,
        "meta_arg_of_pericenter": 26.4642,
        "meta_mean_anomaly": 27.7145,
        "meta_ephemeris_type": 0,
        "meta_classification_type": "U",
        "meta_norad_cat_id": 33792,
        "meta_element_set_no": 999,
        "meta_rev_at_epoch": 82620,
        "meta_bstar": 0.0011866886,
        "meta_mean_motion_dot": 1.212e-05,
        "meta_mean_motion_ddot": 0,
        "tle_line1": "1 33792U 93036AH  25359.96656347  .00001212  00000+0  11867-2 0  9995",
        "tle_line2": "2 33792  73.9014 324.2213 0427879  26.4642  27.7145 13.45849455826200"
      },
      "geometry": {
        "type": "Point",
        "coordinates": [
          -87.68105720115699,
          -69.70740518375052
        ]
      }
    },
    {
      "type": "Feature",
      "properties": {
        "norad_id": 33793,
        "name": "COSMOS 2251 DEB",
        "group": "cosmos-2251-debris",
        "lat": 18.885373685665595,
        "lon": -60.38963037100914,
        "alt_km": 820.3498513076702,
        "timestamp": "2025-12-26T07:29:18.847022+00:00",
        "meta_object_name": "COSMOS 2251 DEB",
        "meta_object_id": "1993-036AJ",
        "meta_epoch": "2025-12-25T15:40:17.961024",
        "meta_mean_motion": 14.27767266,
        "meta_eccentricity": 0.0078975,
        "meta_inclination": 73.9809,
        "meta_ra_of_asc_node": 126.4479,
        "meta_arg_of_pericenter": 274.0481,
        "meta_mean_anomaly": 100.9183,
        "meta_ephemeris_type": 0,
        "meta_classification_type": "U",
        "meta_norad_cat_id": 33793,
        "meta_element_set_no": 999,
        "meta_rev_at_epoch": 87391,
        "meta_bstar": 0.00079111,
        "meta_mean_motion_dot": 1.993e-05,
        "meta_mean_motion_ddot": 0,
        "tle_line1": "1 33793U 93036AJ  25359.65298566  .00001993  00000+0  79111-3 0  9990",
        "tle_line2": "2 33793  73.9809 126.4479 0078975 274.0481 100.9183 14.27767266873916"
      },
      "geometry": {
        "type": "Point",
        "coordinates": [
          -60.38963037100914,
          18.885373685665595
        ]
      }
    },
    {
      "type": "Feature",
      "properties": {
        "norad_id": 33795,
        "name": "COSMOS 2251 DEB",
        "group": "cosmos-2251-debris",
        "lat": -43.53916455193693,
        "lon": 33.10969067049475,
        "alt_km": 575.7082023748026,
        "timestamp": "2025-12-26T07:29:18.847032+00:00",
        "meta_object_name": "COSMOS 2251 DEB",
        "meta_object_id": "1993-036AL",
        "meta_epoch": "2025-12-25T14:41:50.011296",
        "meta_mean_motion": 15.05937532,
        "meta_eccentricity": 0.0030283,
        "meta_inclination": 74.0313,
        "meta_ra_of_asc_node": 50.3344,
        "meta_arg_of_pericenter": 128.6963,
        "meta_mean_anomaly": 354.2555,
        "meta_ephemeris_type": 0,
        "meta_classification_type": "U",
        "meta_norad_cat_id": 33795,
        "meta_element_set_no": 999,
        "meta_rev_at_epoch": 90215,
        "meta_bstar": 0.0011406,
        "meta_mean_motion_dot": 0.0001677,
        "meta_mean_motion_ddot": 0,
        "tle_line1": "1 33795U 93036AL  25359.61238439  .00016770  00000+0  11406-2 0  9992",
        "tle_line2": "2 33795  74.0313  50.3344 0030283 128.6963 354.2555 15.05937532902153"
      },
      "geometry": {
        "type": "Point",
        "coordinates": [
          33.10969067049475,
          -43.53916455193693
        ]
      }
    },
    {
      "type": "Feature",
      "properties": {
        "norad_id": 33797,
        "name": "COSMOS 2251 DEB",
        "group": "cosmos-2251-debris",
        "lat": -41.20801091435205,
        "lon": -5.342486335232514,
        "alt_km": 736.8741630009445,
        "timestamp": "2025-12-26T07:29:18.847042+00:00",
        "meta_object_name": "COSMOS 2251 DEB",
        "meta_object_id": "1993-036AN",
        "meta_epoch": "2025-12-25T10:47:03.494400",
        "meta_mean_motion": 14.57891249,
        "meta_eccentricity": 0.0060353,
        "meta_inclination": 74.0465,
        "meta_ra_of_asc_node": 10.8032,
        "meta_arg_of_pericenter": 94.8189,
        "meta_mean_anomaly": 16.6695,
        "meta_ephemeris_type": 0,
        "meta_classification_type": "U",
        "meta_norad_cat_id": 33797,
        "meta_element_set_no": 999,
        "meta_rev_at_epoch": 89170,
        "meta_bstar": 0.0003832,
        "meta_mean_motion_dot": 1.771e-05,
        "meta_mean_motion_ddot": 0,
        "tle_line1": "1 33797U 93036AN  25359.44934600  .00001771  00000+0  38320-3 0  9998",
        "tle_line2": "2 33797  74.0465  10.8032 0060353  94.8189  16.6695 14.57891249891705"
      },
      "geometry": {
        "type": "Point",
        "coordinates": [
          -5.342486335232514,
          -41.20801091435205
        ]
      }
    },
    {
      "type": "Feature",
      "properties": {
        "norad_id": 33798,
        "name": "COSMOS 2251 DEB",
        "group": "cosmos-2251-debris",
        "lat": -74.00651707138022,
        "lon": 23.007081293538082,
        "alt_km": 700.7872289260104,
        "timestamp": "2025-12-26T07:29:18.847052+00:00",
        "meta_object_name": "COSMOS 2251 DEB",
        "meta_object_id": "1993-036AP",
        "meta_epoch": "2025-12-25T15:49:19.517088",
        "meta_mean_motion": 14.44631109,
        "meta_eccentricity": 0.0092307,
        "meta_inclination": 74.0295,
        "meta_ra_of_asc_node": 111.8414,
        "meta_arg_of_pericenter": 230.4067,
        "meta_mean_anomaly": 246.0836,
        "meta_ephemeris_type": 0,
        "meta_classification_type": "U",
        "meta_norad_cat_id": 33798,
        "meta_element_set_no": 999,
        "meta_rev_at_epoch": 88780,
        "meta_bstar": 0.00020296,
        "meta_mean_motion_dot": 7.11e-06,
        "meta_mean_motion_ddot": 0,
        "tle_line1": "1 33798U 93036AP  25359.65925367  .00000711  00000+0  20296-3 0  9998",
        "tle_line2": "2 33798  74.0295 111.8414 0092307 230.4067 246.0836 14.44631109887805"
      },
      "geometry": {
        "type": "Point",
        "coordinates": [
          23.007081293538082,
          -74.00651707138022
        ]
      }
    },
    {
      "type": "Feature",
      "properties": {
        "norad_id": 33799,
        "name": "COSMOS 2251 DEB",
        "group": "cosmos-2251-debris",
        "lat": 61.29682545213933,
        "lon": 86.5894722192765,
        "alt_km": 614.6222450453324,
        "timestamp": "2025-12-26T07:29:18.847063+00:00",
        "meta_object_name": "COSMOS 2251 DEB",
        "meta_object_id": "1993-036AQ",
        "meta_epoch": "2025-12-25T05:29:12.926112",
        "meta_mean_motion": 14.79807515,
        "meta_eccentricity": 0.0022135,
        "meta_inclination": 74.0314,
        "meta_ra_of_asc_node": 57.1921,
        "meta_arg_of_pericenter": 123.2586,
        "meta_mean_anomaly": 293.5848,
        "meta_ephemeris_type": 0,
        "meta_classification_type": "U",
        "meta_norad_cat_id": 33799,
        "meta_element_set_no": 999,
        "meta_rev_at_epoch": 88996,
        "meta_bstar": 0.0013645,
        "meta_mean_motion_dot": 0.000103,
        "meta_mean_motion_ddot": 0,
        "tle_line1": "1 33799U 93036AQ  25359.22862183  .00010300  00000+0  13645-2 0  9992",
        "tle_line2": "2 33799  74.0314  57.1921 0022135 123.2586 293.5848 14.79807515889963"
      },
      "geometry": {
        "type": "Point",
        "coordinates": [
          86.5894722192765,
          61.29682545213933
        ]
      }
    }
  ]
}